{
  "type": "FeatureCollection",
  "name": "DKI_Jakarta_Kota_Kabupaten",
  "features": [
    {
      "type": "Feature",
      "id": "a8b1b642-c3f5-50d2-9d2d-41a5b186eaa7",
      "properties": {
        "id": "a8b1b642-c3f5-50d2-9d2d-41a5b186eaa7",
        "code": "31.01",
        "name": "Kabupaten Administrasi Kepulauan Seribu",
        "shortName": "KEPULAUAN SERIBU",
        "level": "REGENCY"
      },
      "geometry": {
        "type": "MultiPolygon",
        "coordinates": [
          [
            [
              [
                106.46333313,
                -5.201667786
              ],
              [
                106.465278625,
                -5.203611851
              ],
              [
                106.46472168,
                -5.20527792
              ],
              [
                106.463890076,
                -5.203609943
              ],
              [
                106.462219238,
                -5.204439163
              ],
              [
                106.462219238,
                -5.208610058
              ],
              [
                106.459716797,
                -5.208889961
              ],
              [
                106.458885193,
                -5.204443932
              ],
              [
                106.46333313,
                -5.201667786
              ]
            ]
          ],
          [
            [
              [
                106.471702576,
                -5.415501118
              ],
              [
                106.470291138,
                -5.413516045
              ],
              [
                106.472335815,
                -5.411989212
              ],
              [
                106.47328949,
                -5.412892818
              ],
              [
                106.471702576,
                -5.415501118
              ]
            ]
          ],
          [
            [
              [
                106.492225647,
                -5.422966957
              ],
              [
                106.490013123,
                -5.420589924
              ],
              [
                106.493530273,
                -5.418365955
              ],
              [
                106.495185852,
                -5.41987896
              ],
              [
                106.492225647,
                -5.422966957
              ]
            ]
          ],
          [
            [
              [
                106.572189331,
                -5.458629131
              ],
              [
                106.567489624,
                -5.460198879
              ],
              [
                106.566169739,
                -5.458459854
              ],
              [
                106.570716858,
                -5.455117226
              ],
              [
                106.572723389,
                -5.456440926
              ],
              [
                106.572189331,
                -5.458629131
              ]
            ]
          ],
          [
            [
              [
                106.555419922,
                -5.465787888
              ],
              [
                106.553276062,
                -5.464519978
              ],
              [
                106.553604126,
                -5.461460114
              ],
              [
                106.557006836,
                -5.460659981
              ],
              [
                106.557777405,
                -5.463449001
              ],
              [
                106.555419922,
                -5.465787888
              ]
            ]
          ],
          [
            [
              [
                106.546188354,
                -5.46389389
              ],
              [
                106.54473114,
                -5.462920189
              ],
              [
                106.545906067,
                -5.462359905
              ],
              [
                106.546188354,
                -5.46389389
              ]
            ]
          ],
          [
            [
              [
                106.524276733,
                -5.479770184
              ],
              [
                106.523071289,
                -5.477865219
              ],
              [
                106.526687622,
                -5.476587772
              ],
              [
                106.524276733,
                -5.479770184
              ]
            ]
          ],
          [
            [
              [
                106.392776489,
                -5.481110096
              ],
              [
                106.390274048,
                -5.479444027
              ],
              [
                106.393608093,
                -5.476939201
              ],
              [
                106.395553589,
                -5.479731083
              ],
              [
                106.392776489,
                -5.481110096
              ]
            ]
          ],
          [
            [
              [
                106.578163147,
                -5.494729996
              ],
              [
                106.575866699,
                -5.494116783
              ],
              [
                106.576202393,
                -5.49270916
              ],
              [
                106.578559875,
                -5.491416931
              ],
              [
                106.580696106,
                -5.49229908
              ],
              [
                106.578163147,
                -5.494729996
              ]
            ]
          ],
          [
            [
              [
                106.551994324,
                -5.500162125
              ],
              [
                106.555648804,
                -5.500068188
              ],
              [
                106.557090759,
                -5.501617908
              ],
              [
                106.542648315,
                -5.504571915
              ],
              [
                106.546562195,
                -5.499383926
              ],
              [
                106.551994324,
                -5.500162125
              ]
            ]
          ],
          [
            [
              [
                106.533676147,
                -5.503829002
              ],
              [
                106.53188324,
                -5.502738953
              ],
              [
                106.533103943,
                -5.501227856
              ],
              [
                106.535133362,
                -5.502360821
              ],
              [
                106.533676147,
                -5.503829002
              ]
            ]
          ],
          [
            [
              [
                106.533065796,
                -5.515738964
              ],
              [
                106.533737183,
                -5.512330055
              ],
              [
                106.538215637,
                -5.511136055
              ],
              [
                106.53818512,
                -5.513557911
              ],
              [
                106.533065796,
                -5.515738964
              ]
            ]
          ],
          [
            [
              [
                106.528236389,
                -5.514793873
              ],
              [
                106.526184082,
                -5.512682915
              ],
              [
                106.529434204,
                -5.513525963
              ],
              [
                106.528236389,
                -5.514793873
              ]
            ]
          ],
          [
            [
              [
                106.525886536,
                -5.523509026
              ],
              [
                106.525047302,
                -5.521171093
              ],
              [
                106.526657104,
                -5.522219181
              ],
              [
                106.525886536,
                -5.523509026
              ]
            ]
          ],
          [
            [
              [
                106.540664673,
                -5.53207922
              ],
              [
                106.539627075,
                -5.530381203
              ],
              [
                106.54108429,
                -5.528610229
              ],
              [
                106.544464111,
                -5.528575897
              ],
              [
                106.540664673,
                -5.53207922
              ]
            ]
          ],
          [
            [
              [
                106.531646729,
                -5.538018227
              ],
              [
                106.531349182,
                -5.536393166
              ],
              [
                106.536453247,
                -5.534818172
              ],
              [
                106.535446167,
                -5.536770821
              ],
              [
                106.531646729,
                -5.538018227
              ]
            ]
          ],
          [
            [
              [
                106.519897461,
                -5.551606178
              ],
              [
                106.518211365,
                -5.550300121
              ],
              [
                106.520179749,
                -5.548731804
              ],
              [
                106.521286011,
                -5.549097061
              ],
              [
                106.519897461,
                -5.551606178
              ]
            ]
          ],
          [
            [
              [
                106.530097961,
                -5.55050087
              ],
              [
                106.526367188,
                -5.550903797
              ],
              [
                106.526062012,
                -5.549794197
              ],
              [
                106.529396057,
                -5.548688889
              ],
              [
                106.530097961,
                -5.55050087
              ]
            ]
          ],
          [
            [
              [
                106.542419434,
                -5.555715084
              ],
              [
                106.540565491,
                -5.553187847
              ],
              [
                106.545425415,
                -5.551875114
              ],
              [
                106.544960022,
                -5.554223061
              ],
              [
                106.542419434,
                -5.555715084
              ]
            ]
          ],
          [
            [
              [
                106.531280518,
                -5.556738853
              ],
              [
                106.530174255,
                -5.55496788
              ],
              [
                106.533332825,
                -5.55416584
              ],
              [
                106.531280518,
                -5.556738853
              ]
            ]
          ],
          [
            [
              [
                106.526992798,
                -5.558371067
              ],
              [
                106.525604248,
                -5.556846142
              ],
              [
                106.528106689,
                -5.556348801
              ],
              [
                106.526992798,
                -5.558371067
              ]
            ]
          ],
          [
            [
              [
                106.528160095,
                -5.570868969
              ],
              [
                106.525596619,
                -5.567710876
              ],
              [
                106.52960968,
                -5.568034172
              ],
              [
                106.528160095,
                -5.570868969
              ]
            ]
          ],
          [
            [
              [
                106.551109314,
                -5.571111202
              ],
              [
                106.550003052,
                -5.571389198
              ],
              [
                106.550140381,
                -5.569027901
              ],
              [
                106.55141449,
                -5.569180965
              ],
              [
                106.551109314,
                -5.571111202
              ]
            ]
          ],
          [
            [
              [
                106.585281372,
                -5.569167137
              ],
              [
                106.584266663,
                -5.572050095
              ],
              [
                106.583679199,
                -5.569788933
              ],
              [
                106.585281372,
                -5.569167137
              ]
            ]
          ],
          [
            [
              [
                106.539596558,
                -5.575203896
              ],
              [
                106.541168213,
                -5.570970058
              ],
              [
                106.543106079,
                -5.571053982
              ],
              [
                106.542655945,
                -5.573442936
              ],
              [
                106.539596558,
                -5.575203896
              ]
            ]
          ],
          [
            [
              [
                106.558547974,
                -5.573039055
              ],
              [
                106.556022644,
                -5.571341038
              ],
              [
                106.559265137,
                -5.571354866
              ],
              [
                106.558547974,
                -5.573039055
              ]
            ]
          ],
          [
            [
              [
                106.580696106,
                -5.577431202
              ],
              [
                106.57938385,
                -5.576086044
              ],
              [
                106.58215332,
                -5.573901176
              ],
              [
                106.582702637,
                -5.575377941
              ],
              [
                106.580696106,
                -5.577431202
              ]
            ]
          ],
          [
            [
              [
                106.548995972,
                -5.583589077
              ],
              [
                106.546989441,
                -5.580850124
              ],
              [
                106.55002594,
                -5.577343941
              ],
              [
                106.551109314,
                -5.578829765
              ],
              [
                106.548995972,
                -5.583589077
              ]
            ]
          ],
          [
            [
              [
                106.596282959,
                -5.580900192
              ],
              [
                106.592605591,
                -5.579988003
              ],
              [
                106.595237732,
                -5.578939915
              ],
              [
                106.596282959,
                -5.580900192
              ]
            ]
          ],
          [
            [
              [
                106.570556641,
                -5.582779884
              ],
              [
                106.567497253,
                -5.583889961
              ],
              [
                106.566802979,
                -5.582779884
              ],
              [
                106.570556641,
                -5.582779884
              ]
            ]
          ],
          [
            [
              [
                106.591110229,
                -5.587500095
              ],
              [
                106.588142395,
                -5.587319851
              ],
              [
                106.58821106,
                -5.585929871
              ],
              [
                106.591636658,
                -5.58355999
              ],
              [
                106.592781067,
                -5.584438801
              ],
              [
                106.591110229,
                -5.587500095
              ]
            ]
          ],
          [
            [
              [
                106.54725647,
                -5.585970879
              ],
              [
                106.548606873,
                -5.587780952
              ],
              [
                106.545417786,
                -5.588646889
              ],
              [
                106.544380188,
                -5.586597919
              ],
              [
                106.54725647,
                -5.585970879
              ]
            ]
          ],
          [
            [
              [
                106.555732727,
                -5.589118958
              ],
              [
                106.553451538,
                -5.590809822
              ],
              [
                106.550697327,
                -5.590548038
              ],
              [
                106.550796509,
                -5.589299202
              ],
              [
                106.555732727,
                -5.589118958
              ]
            ]
          ],
          [
            [
              [
                106.543998718,
                -5.592708111
              ],
              [
                106.541252136,
                -5.591874123
              ],
              [
                106.543304443,
                -5.590589046
              ],
              [
                106.543998718,
                -5.592708111
              ]
            ]
          ],
          [
            [
              [
                106.56867218,
                -5.593882084
              ],
              [
                106.567321777,
                -5.59183979
              ],
              [
                106.570449829,
                -5.591960907
              ],
              [
                106.56867218,
                -5.593882084
              ]
            ]
          ],
          [
            [
              [
                106.559043884,
                -5.595777988
              ],
              [
                106.557373047,
                -5.594893932
              ],
              [
                106.561721802,
                -5.592721939
              ],
              [
                106.559043884,
                -5.595777988
              ]
            ]
          ],
          [
            [
              [
                106.544776916,
                -5.606367111
              ],
              [
                106.543563843,
                -5.60627985
              ],
              [
                106.544006348,
                -5.604310989
              ],
              [
                106.547050476,
                -5.604003906
              ],
              [
                106.544776916,
                -5.606367111
              ]
            ]
          ],
          [
            [
              [
                106.581871033,
                -5.610282898
              ],
              [
                106.58265686,
                -5.611028194
              ],
              [
                106.576278687,
                -5.614523888
              ],
              [
                106.572937012,
                -5.61426878
              ],
              [
                106.574775696,
                -5.610582829
              ],
              [
                106.581871033,
                -5.610282898
              ]
            ]
          ],
          [
            [
              [
                106.550270081,
                -5.620849133
              ],
              [
                106.549201965,
                -5.620580196
              ],
              [
                106.551185608,
                -5.616324902
              ],
              [
                106.554039001,
                -5.614271164
              ],
              [
                106.55607605,
                -5.615120888
              ],
              [
                106.556289673,
                -5.617409229
              ],
              [
                106.550270081,
                -5.620849133
              ]
            ]
          ],
          [
            [
              [
                106.583747864,
                -5.621140003
              ],
              [
                106.581489563,
                -5.620591164
              ],
              [
                106.584747314,
                -5.618679047
              ],
              [
                106.585151672,
                -5.620503902
              ],
              [
                106.583747864,
                -5.621140003
              ]
            ]
          ],
          [
            [
              [
                106.546165466,
                -5.625161171
              ],
              [
                106.543525696,
                -5.623702049
              ],
              [
                106.54776001,
                -5.623355865
              ],
              [
                106.54839325,
                -5.624608994
              ],
              [
                106.546165466,
                -5.625161171
              ]
            ]
          ],
          [
            [
              [
                106.574012756,
                -5.62797308
              ],
              [
                106.571098328,
                -5.628389835
              ],
              [
                106.572486877,
                -5.626654148
              ],
              [
                106.574012756,
                -5.62797308
              ]
            ]
          ],
          [
            [
              [
                106.578849792,
                -5.634218216
              ],
              [
                106.585922241,
                -5.635004044
              ],
              [
                106.575035095,
                -5.635989189
              ],
              [
                106.576141357,
                -5.633594036
              ],
              [
                106.578849792,
                -5.634218216
              ]
            ]
          ],
          [
            [
              [
                106.558937073,
                -5.646489143
              ],
              [
                106.55771637,
                -5.645998955
              ],
              [
                106.559066772,
                -5.644408226
              ],
              [
                106.567100525,
                -5.643065929
              ],
              [
                106.558937073,
                -5.646489143
              ]
            ]
          ],
          [
            [
              [
                106.569313049,
                -5.648260117
              ],
              [
                106.568817139,
                -5.64993
              ],
              [
                106.56375885,
                -5.648889065
              ],
              [
                106.569313049,
                -5.648260117
              ]
            ]
          ],
          [
            [
              [
                106.577171326,
                -5.652130127
              ],
              [
                106.580871582,
                -5.652832031
              ],
              [
                106.57800293,
                -5.654408932
              ],
              [
                106.576560974,
                -5.654033184
              ],
              [
                106.577171326,
                -5.652130127
              ]
            ]
          ],
          [
            [
              [
                106.572769165,
                -5.652563095
              ],
              [
                106.567596436,
                -5.656661034
              ],
              [
                106.564582825,
                -5.6559062
              ],
              [
                106.569046021,
                -5.652791023
              ],
              [
                106.572769165,
                -5.652563095
              ]
            ]
          ],
          [
            [
              [
                106.565620422,
                -5.664319038
              ],
              [
                106.565376282,
                -5.662724972
              ],
              [
                106.570297241,
                -5.660648823
              ],
              [
                106.565620422,
                -5.664319038
              ]
            ]
          ],
          [
            [
              [
                106.560836792,
                -5.66972208
              ],
              [
                106.558837891,
                -5.6690979
              ],
              [
                106.561004639,
                -5.6683321
              ],
              [
                106.560836792,
                -5.66972208
              ]
            ]
          ],
          [
            [
              [
                106.579277039,
                -5.67157793
              ],
              [
                106.580368042,
                -5.669161797
              ],
              [
                106.584358215,
                -5.668778896
              ],
              [
                106.583457947,
                -5.670476913
              ],
              [
                106.579277039,
                -5.67157793
              ]
            ]
          ],
          [
            [
              [
                106.587837219,
                -5.678188801
              ],
              [
                106.58895874,
                -5.678678989
              ],
              [
                106.586669922,
                -5.679931164
              ],
              [
                106.587837219,
                -5.678188801
              ]
            ]
          ],
          [
            [
              [
                106.711654663,
                -5.696751118
              ],
              [
                106.711715698,
                -5.693493843
              ],
              [
                106.713935852,
                -5.693329811
              ],
              [
                106.711654663,
                -5.696751118
              ]
            ]
          ],
          [
            [
              [
                106.538726807,
                -5.699697971
              ],
              [
                106.543167114,
                -5.699839115
              ],
              [
                106.540931702,
                -5.70198822
              ],
              [
                106.533981323,
                -5.700582027
              ],
              [
                106.535545349,
                -5.699216843
              ],
              [
                106.538726807,
                -5.699697971
              ]
            ]
          ],
          [
            [
              [
                106.600662231,
                -5.736384869
              ],
              [
                106.598846436,
                -5.734270096
              ],
              [
                106.602882385,
                -5.733779907
              ],
              [
                106.603507996,
                -5.734753132
              ],
              [
                106.600662231,
                -5.736384869
              ]
            ]
          ],
          [
            [
              [
                106.599700928,
                -5.737276077
              ],
              [
                106.602050781,
                -5.737526894
              ],
              [
                106.603897095,
                -5.74285078
              ],
              [
                106.598655701,
                -5.738875866
              ],
              [
                106.599700928,
                -5.737276077
              ]
            ]
          ],
          [
            [
              [
                106.612609863,
                -5.749434948
              ],
              [
                106.612106323,
                -5.74572897
              ],
              [
                106.615814209,
                -5.742228985
              ],
              [
                106.615211487,
                -5.746727943
              ],
              [
                106.612609863,
                -5.749434948
              ]
            ]
          ],
          [
            [
              [
                106.582870483,
                -5.76532793
              ],
              [
                106.583152771,
                -5.761778831
              ],
              [
                106.584266663,
                -5.762310028
              ],
              [
                106.582870483,
                -5.76532793
              ]
            ]
          ],
          [
            [
              [
                106.560157776,
                -5.772190094
              ],
              [
                106.558883667,
                -5.770759106
              ],
              [
                106.560623169,
                -5.769480228
              ],
              [
                106.560157776,
                -5.772190094
              ]
            ]
          ],
          [
            [
              [
                106.48122406,
                -5.793106079
              ],
              [
                106.491653442,
                -5.795820236
              ],
              [
                106.496696472,
                -5.7953372
              ],
              [
                106.510955811,
                -5.802885056
              ],
              [
                106.479156494,
                -5.793958187
              ],
              [
                106.48122406,
                -5.793106079
              ]
            ]
          ],
          [
            [
              [
                106.518615723,
                -5.80221796
              ],
              [
                106.52910614,
                -5.80355978
              ],
              [
                106.526306152,
                -5.804660797
              ],
              [
                106.516921997,
                -5.803135872
              ],
              [
                106.518615723,
                -5.80221796
              ]
            ]
          ],
          [
            [
              [
                106.551780701,
                -5.819990158
              ],
              [
                106.557159424,
                -5.820388794
              ],
              [
                106.557693481,
                -5.822418213
              ],
              [
                106.554618835,
                -5.823366165
              ],
              [
                106.550170898,
                -5.820869923
              ],
              [
                106.551780701,
                -5.819990158
              ]
            ]
          ],
          [
            [
              [
                106.629554749,
                -5.853579998
              ],
              [
                106.631080627,
                -5.854977131
              ],
              [
                106.624313354,
                -5.8561759
              ],
              [
                106.610496521,
                -5.863329887
              ],
              [
                106.615539551,
                -5.857048988
              ],
              [
                106.629554749,
                -5.853579998
              ]
            ]
          ],
          [
            [
              [
                106.602218628,
                -5.855280876
              ],
              [
                106.602218628,
                -5.857500076
              ],
              [
                106.599998474,
                -5.857500076
              ],
              [
                106.599441528,
                -5.855556011
              ],
              [
                106.602218628,
                -5.855280876
              ]
            ]
          ],
          [
            [
              [
                106.603889465,
                -5.859732151
              ],
              [
                106.603424072,
                -5.8577528
              ],
              [
                106.606971741,
                -5.857524872
              ],
              [
                106.603889465,
                -5.859732151
              ]
            ]
          ],
          [
            [
              [
                106.598609924,
                -5.866388798
              ],
              [
                106.59777832,
                -5.863329887
              ],
              [
                106.598892212,
                -5.86221981
              ],
              [
                106.598609924,
                -5.866388798
              ]
            ]
          ],
          [
            [
              [
                106.585037231,
                -5.925869942
              ],
              [
                106.589111328,
                -5.932771206
              ],
              [
                106.587402344,
                -5.93408823
              ],
              [
                106.585609436,
                -5.930212021
              ],
              [
                106.581138611,
                -5.926214218
              ],
              [
                106.585037231,
                -5.925869942
              ]
            ]
          ],
          [
            [
              [
                106.594429016,
                -5.939065933
              ],
              [
                106.591560364,
                -5.934958935
              ],
              [
                106.593574524,
                -5.934742928
              ],
              [
                106.597465515,
                -5.937572956
              ],
              [
                106.594429016,
                -5.939065933
              ]
            ]
          ],
          [
            [
              [
                106.629173279,
                -5.94246912
              ],
              [
                106.632759094,
                -5.942728996
              ],
              [
                106.633514404,
                -5.944615841
              ],
              [
                106.62903595,
                -5.944659233
              ],
              [
                106.628074646,
                -5.943769932
              ],
              [
                106.629173279,
                -5.94246912
              ]
            ]
          ],
          [
            [
              [
                106.520843506,
                -5.960020065
              ],
              [
                106.519233704,
                -5.957229137
              ],
              [
                106.521377563,
                -5.953739166
              ],
              [
                106.52293396,
                -5.957109928
              ],
              [
                106.520843506,
                -5.960020065
              ]
            ]
          ],
          [
            [
              [
                106.845451355,
                -5.960437775
              ],
              [
                106.8409729,
                -5.956678867
              ],
              [
                106.842277527,
                -5.954810143
              ],
              [
                106.847396851,
                -5.956600189
              ],
              [
                106.845451355,
                -5.960437775
              ]
            ]
          ],
          [
            [
              [
                106.692741394,
                -5.970938206
              ],
              [
                106.695770264,
                -5.972462177
              ],
              [
                106.694458008,
                -5.978240013
              ],
              [
                106.690834045,
                -5.976780891
              ],
              [
                106.688652039,
                -5.972752094
              ],
              [
                106.689628601,
                -5.970419884
              ],
              [
                106.692741394,
                -5.970938206
              ]
            ]
          ],
          [
            [
              [
                106.708625793,
                -5.980229855
              ],
              [
                106.702667236,
                -5.976941109
              ],
              [
                106.702636719,
                -5.975586891
              ],
              [
                106.707328796,
                -5.974441051
              ],
              [
                106.710876465,
                -5.97576189
              ],
              [
                106.708625793,
                -5.980229855
              ]
            ]
          ],
          [
            [
              [
                106.847221375,
                -5.98555994
              ],
              [
                106.846389771,
                -5.982778072
              ],
              [
                106.848335266,
                -5.983957767
              ],
              [
                106.847221375,
                -5.98555994
              ]
            ]
          ],
          [
            [
              [
                106.782012939,
                -6.005740166
              ],
              [
                106.779556274,
                -6.003670216
              ],
              [
                106.780441284,
                -6.002799988
              ],
              [
                106.783493042,
                -6.004098892
              ],
              [
                106.782012939,
                -6.005740166
              ]
            ]
          ],
          [
            [
              [
                106.735687256,
                -6.034858227
              ],
              [
                106.733123779,
                -6.033008099
              ],
              [
                106.736152649,
                -6.032571793
              ],
              [
                106.735687256,
                -6.034858227
              ]
            ]
          ],
          [
            [
              [
                106.74672699,
                -6.037270069
              ],
              [
                106.745597839,
                -6.035517216
              ],
              [
                106.747383118,
                -6.034454823
              ],
              [
                106.74672699,
                -6.037270069
              ]
            ]
          ],
          [
            [
              [
                106.73638916,
                -6.039999962
              ],
              [
                106.73500061,
                -6.040555954
              ],
              [
                106.735275269,
                -6.038333893
              ],
              [
                106.73638916,
                -6.039999962
              ]
            ]
          ]
        ]
      }
    },
    {
      "type": "Feature",
      "id": "242bc408-f86d-5711-98a5-a44a9cfef54a",
      "properties": {
        "id": "242bc408-f86d-5711-98a5-a44a9cfef54a",
        "code": "31.71",
        "name": "Kota Administrasi Jakarta Pusat",
        "shortName": "JAKARTA PUSAT",
        "level": "CITY"
      },
      "geometry": {
        "type": "Polygon",
        "coordinates": [
          [
            [
              106.791833,
              -6.208756
            ],
            [
              106.796156,
              -6.207579
            ],
            [
              106.798159,
              -6.202812
            ],
            [
              106.80407,
              -6.19756
            ],
            [
              106.80673,
              -6.189014
            ],
            [
              106.810452,
              -6.188854
            ],
            [
              106.809544,
              -6.179263
            ],
            [
              106.798229,
              -6.161343
            ],
            [
              106.801185,
              -6.159392
            ],
            [
              106.801394,
              -6.157195
            ],
            [
              106.801705,
              -6.160165
            ],
            [
              106.8045,
              -6.161789
            ],
            [
              106.820659,
              -6.159557
            ],
            [
              106.827872,
              -6.162239
            ],
            [
              106.826323,
              -6.146945
            ],
            [
              106.821513,
              -6.137141
            ],
            [
              106.82983,
              -6.135487
            ],
            [
              106.831197,
              -6.14043
            ],
            [
              106.835572,
              -6.142952
            ],
            [
              106.837206,
              -6.146126
            ],
            [
              106.838383,
              -6.141778
            ],
            [
              106.843168,
              -6.144521
            ],
            [
              106.841875,
              -6.14986
            ],
            [
              106.845319,
              -6.153395
            ],
            [
              106.856504,
              -6.151942
            ],
            [
              106.87695,
              -6.163484
            ],
            [
              106.882039,
              -6.162307
            ],
            [
              106.878417,
              -6.167263
            ],
            [
              106.876208,
              -6.175214
            ],
            [
              106.875056,
              -6.192173
            ],
            [
              106.865675,
              -6.192632
            ],
            [
              106.860992,
              -6.194471
            ],
            [
              106.851177,
              -6.201523
            ],
            [
              106.855224,
              -6.202448
            ],
            [
              106.854778,
              -6.206057
            ],
            [
              106.850333,
              -6.205495
            ],
            [
              106.847696,
              -6.209144
            ],
            [
              106.822975,
              -6.202695
            ],
            [
              106.8213,
              -6.209966
            ],
            [
              106.8184,
              -6.214627
            ],
            [
              106.797595,
              -6.22926
            ],
            [
              106.795623,
              -6.22857
            ],
            [
              106.796947,
              -6.218626
            ],
            [
              106.795839,
              -6.212521
            ],
            [
              106.791833,
              -6.208756
            ]
          ]
        ]
      }
    },
    {
      "type": "Feature",
      "id": "5867e821-bd58-5b38-9f92-da3dedc2022b",
      "properties": {
        "id": "5867e821-bd58-5b38-9f92-da3dedc2022b",
        "code": "31.72",
        "name": "Kota Administrasi Jakarta Utara ",
        "shortName": "JAKARTA UTARA",
        "level": "CITY"
      },
      "geometry": {
        "type": "MultiPolygon",
        "coordinates": [
          [
            [
              [
                106.719308,
                -6.092618
              ],
              [
                106.725719,
                -6.089175
              ],
              [
                106.732709,
                -6.097842
              ],
              [
                106.741556,
                -6.102169
              ],
              [
                106.744855,
                -6.102257
              ],
              [
                106.750116,
                -6.099089
              ],
              [
                106.751263,
                -6.104225
              ],
              [
                106.751389,
                -6.100917
              ],
              [
                106.755089,
                -6.103527
              ],
              [
                106.762733,
                -6.104392
              ],
              [
                106.766163,
                -6.110527
              ],
              [
                106.764803,
                -6.110976
              ],
              [
                106.765376,
                -6.115859
              ],
              [
                106.770233,
                -6.115614
              ],
              [
                106.767306,
                -6.102136
              ],
              [
                106.771166,
                -6.103792
              ],
              [
                106.773756,
                -6.098362
              ],
              [
                106.772168,
                -6.104542
              ],
              [
                106.773922,
                -6.104946
              ],
              [
                106.777166,
                -6.102248
              ],
              [
                106.77426,
                -6.109765
              ],
              [
                106.777299,
                -6.106574
              ],
              [
                106.782651,
                -6.108732
              ],
              [
                106.7905,
                -6.108104
              ],
              [
                106.790886,
                -6.09414
              ],
              [
                106.79399,
                -6.092913
              ],
              [
                106.79716,
                -6.095474
              ],
              [
                106.796103,
                -6.10844
              ],
              [
                106.800222,
                -6.108689
              ],
              [
                106.798697,
                -6.096817
              ],
              [
                106.800114,
                -6.096599
              ],
              [
                106.799804,
                -6.094822
              ],
              [
                106.802396,
                -6.102325
              ],
              [
                106.804475943,
                -6.101972417
              ],
              [
                106.809392,
                -6.127672
              ],
              [
                106.808042,
                -6.116108
              ],
              [
                106.8118,
                -6.122366
              ],
              [
                106.812041,
                -6.119285
              ],
              [
                106.813825,
                -6.120737
              ],
              [
                106.816574,
                -6.119893
              ],
              [
                106.817233,
                -6.114885
              ],
              [
                106.827603,
                -6.116339
              ],
              [
                106.830196,
                -6.120966
              ],
              [
                106.84256,
                -6.120982
              ],
              [
                106.843001,
                -6.121999
              ],
              [
                106.839405,
                -6.123102
              ],
              [
                106.842517,
                -6.12366
              ],
              [
                106.846327,
                -6.11927
              ],
              [
                106.847937,
                -6.120274
              ],
              [
                106.85851,
                -6.115429
              ],
              [
                106.858201,
                -6.113552
              ],
              [
                106.856719,
                -6.113627
              ],
              [
                106.857724,
                -6.111053
              ],
              [
                106.860759,
                -6.110371
              ],
              [
                106.861312,
                -6.114047
              ],
              [
                106.862686,
                -6.114454
              ],
              [
                106.863814,
                -6.111802
              ],
              [
                106.872916,
                -6.104395
              ],
              [
                106.872092,
                -6.108477
              ],
              [
                106.864963,
                -6.11235
              ],
              [
                106.864696,
                -6.120752
              ],
              [
                106.866294,
                -6.11979
              ],
              [
                106.86595,
                -6.113256
              ],
              [
                106.871417,
                -6.110376
              ],
              [
                106.87044,
                -6.115048
              ],
              [
                106.872795,
                -6.114504
              ],
              [
                106.874633,
                -6.10396
              ],
              [
                106.876593,
                -6.101882
              ],
              [
                106.877452,
                -6.105218
              ],
              [
                106.875993,
                -6.110389
              ],
              [
                106.877225,
                -6.106881
              ],
              [
                106.878594,
                -6.10989
              ],
              [
                106.878814,
                -6.102319
              ],
              [
                106.879949,
                -6.102361
              ],
              [
                106.879066,
                -6.095832
              ],
              [
                106.879521,
                -6.098531
              ],
              [
                106.882298,
                -6.095063
              ],
              [
                106.882264,
                -6.106393
              ],
              [
                106.883817,
                -6.106444
              ],
              [
                106.884218,
                -6.096034
              ],
              [
                106.886463,
                -6.096113
              ],
              [
                106.886709,
                -6.106527
              ],
              [
                106.888023,
                -6.106561
              ],
              [
                106.888365,
                -6.0972
              ],
              [
                106.891008,
                -6.097291
              ],
              [
                106.890725,
                -6.106792
              ],
              [
                106.892442,
                -6.10686
              ],
              [
                106.89279,
                -6.09737
              ],
              [
                106.905479,
                -6.097891
              ],
              [
                106.905255,
                -6.106633
              ],
              [
                106.907184,
                -6.108458
              ],
              [
                106.907557,
                -6.103816
              ],
              [
                106.910424,
                -6.10384
              ],
              [
                106.91045,
                -6.101653
              ],
              [
                106.908102,
                -6.100868
              ],
              [
                106.909102,
                -6.099131
              ],
              [
                106.918845,
                -6.099118
              ],
              [
                106.918854,
                -6.104349
              ],
              [
                106.920378,
                -6.10453
              ],
              [
                106.920195,
                -6.100946
              ],
              [
                106.925785,
                -6.099983
              ],
              [
                106.926913,
                -6.098021
              ],
              [
                106.935615,
                -6.096354
              ],
              [
                106.940322,
                -6.098502
              ],
              [
                106.953275,
                -6.096102
              ],
              [
                106.954715,
                -6.094053
              ],
              [
                106.954374,
                -6.090034
              ],
              [
                106.955159,
                -6.094984
              ],
              [
                106.961655,
                -6.092628
              ],
              [
                106.96612,
                -6.093599
              ],
              [
                106.970304,
                -6.091075
              ],
              [
                106.970455,
                -6.100197
              ],
              [
                106.968774,
                -6.101919
              ],
              [
                106.969168,
                -6.124359
              ],
              [
                106.972505,
                -6.146192
              ],
              [
                106.971452,
                -6.156336
              ],
              [
                106.968161,
                -6.155092
              ],
              [
                106.960815,
                -6.155613
              ],
              [
                106.959893,
                -6.160463
              ],
              [
                106.954794,
                -6.157866
              ],
              [
                106.948927,
                -6.163689
              ],
              [
                106.945422,
                -6.16358
              ],
              [
                106.944811,
                -6.158583
              ],
              [
                106.941092,
                -6.157904
              ],
              [
                106.940227,
                -6.151523
              ],
              [
                106.935877,
                -6.158279
              ],
              [
                106.928996,
                -6.160932
              ],
              [
                106.932181,
                -6.164135
              ],
              [
                106.93008,
                -6.16814
              ],
              [
                106.9241,
                -6.165736
              ],
              [
                106.922747,
                -6.162668
              ],
              [
                106.921685,
                -6.163443
              ],
              [
                106.920147,
                -6.170008
              ],
              [
                106.922383,
                -6.18313
              ],
              [
                106.91209,
                -6.182788
              ],
              [
                106.896277,
                -6.177957
              ],
              [
                106.89132,
                -6.173405
              ],
              [
                106.878877,
                -6.166292
              ],
              [
                106.882039,
                -6.162307
              ],
              [
                106.877301,
                -6.163503
              ],
              [
                106.85676,
                -6.151682
              ],
              [
                106.845319,
                -6.153395
              ],
              [
                106.841333,
                -6.150691
              ],
              [
                106.843927,
                -6.144949
              ],
              [
                106.838612,
                -6.141915
              ],
              [
                106.837177,
                -6.145228
              ],
              [
                106.831197,
                -6.14043
              ],
              [
                106.830702,
                -6.135334
              ],
              [
                106.816832,
                -6.13721
              ],
              [
                106.814206,
                -6.129597
              ],
              [
                106.801035,
                -6.133786
              ],
              [
                106.800578,
                -6.142064
              ],
              [
                106.775223,
                -6.14531
              ],
              [
                106.774977,
                -6.141431
              ],
              [
                106.767081,
                -6.140295
              ],
              [
                106.751432,
                -6.1346
              ],
              [
                106.734712,
                -6.124016
              ],
              [
                106.727119,
                -6.117134
              ],
              [
                106.712537,
                -6.096852
              ],
              [
                106.717177,
                -6.092124
              ],
              [
                106.719308,
                -6.092618
              ]
            ]
          ],
          [
            [
              [
                106.804502,
                -6.101968
              ],
              [
                106.804475943,
                -6.101972417
              ],
              [
                106.803063,
                -6.094586
              ],
              [
                106.804502,
                -6.101968
              ]
            ]
          ]
        ]
      }
    },
    {
      "type": "Feature",
      "id": "245d9fa3-f490-5ac3-9655-dd89d48b7681",
      "properties": {
        "id": "245d9fa3-f490-5ac3-9655-dd89d48b7681",
        "code": "31.73",
        "name": "Kota Administrasi Jakarta Barat",
        "shortName": "JAKARTA BARAT",
        "level": "CITY"
      },
      "geometry": {
        "type": "Polygon",
        "coordinates": [
          [
            [
              106.745244111,
              -6.223041159
            ],
            [
              106.717606629,
              -6.223843772
            ],
            [
              106.71732768,
              -6.220509765
            ],
            [
              106.720138635,
              -6.210349622
            ],
            [
              106.723518218,
              -6.207402668
            ],
            [
              106.723807897,
              -6.197970734
            ],
            [
              106.717520799,
              -6.193441948
            ],
            [
              106.716372813,
              -6.190622895
            ],
            [
              106.716941442,
              -6.187462504
            ],
            [
              106.709613647,
              -6.181571489
            ],
            [
              106.704345788,
              -6.179093701
            ],
            [
              106.688767518,
              -6.172937098
            ],
            [
              106.689175214,
              -6.165165405
            ],
            [
              106.6892074,
              -6.160426166
            ],
            [
              106.68717965,
              -6.156028228
            ],
            [
              106.687587346,
              -6.149621678
            ],
            [
              106.686063851,
              -6.143257719
            ],
            [
              106.688917722,
              -6.141174441
            ],
            [
              106.691385354,
              -6.137000358
            ],
            [
              106.690945472,
              -6.133547877
            ],
            [
              106.689733113,
              -6.13325294
            ],
            [
              106.687222566,
              -6.130017535
            ],
            [
              106.686879243,
              -6.127145979
            ],
            [
              106.689818944,
              -6.121144453
            ],
            [
              106.68966874,
              -6.117532438
            ],
            [
              106.691921796,
              -6.113579029
            ],
            [
              106.697608079,
              -6.11099108
            ],
            [
              106.69354185,
              -6.107008784
            ],
            [
              106.690650429,
              -6.106895188
            ],
            [
              106.689226176,
              -6.106689039
            ],
            [
              106.688231076,
              -6.10537342
            ],
            [
              106.688005771,
              -6.101071041
            ],
            [
              106.687292303,
              -6.097127593
            ],
            [
              106.690720166,
              -6.096058197
            ],
            [
              106.692490424,
              -6.096897816
            ],
            [
              106.69520482,
              -6.09603053
            ],
            [
              106.697938707,
              -6.096789303
            ],
            [
              106.700758424,
              -6.096097206
            ],
            [
              106.702805665,
              -6.096343907
            ],
            [
              106.704852907,
              -6.095225083
            ],
            [
              106.706200807,
              -6.095974522
            ],
            [
              106.710466951,
              -6.095443781
            ],
            [
              106.714132281,
              -6.098796245
            ],
            [
              106.716351183,
              -6.103416852
            ],
            [
              106.719600054,
              -6.107781388
            ],
            [
              106.730020618,
              -6.119862687
            ],
            [
              106.747106651,
              -6.131991716
            ],
            [
              106.752396683,
              -6.134979927
            ],
            [
              106.761034112,
              -6.137968122
            ],
            [
              106.772551876,
              -6.14131832
            ],
            [
              106.774885755,
              -6.141468328
            ],
            [
              106.775073868,
              -6.145095851
            ],
            [
              106.777407748,
              -6.144072467
            ],
            [
              106.800584897,
              -6.141987023
            ],
            [
              106.800399825,
              -6.136460275
            ],
            [
              106.800965771,
              -6.133792344
            ],
            [
              106.803076669,
              -6.132639177
            ],
            [
              106.805745467,
              -6.131827367
            ],
            [
              106.814832791,
              -6.129860215
            ],
            [
              106.816735819,
              -6.137085517
            ],
            [
              106.820591494,
              -6.136694283
            ],
            [
              106.821689859,
              -6.13750846
            ],
            [
              106.82669352,
              -6.148989852
            ],
            [
              106.827868327,
              -6.161889397
            ],
            [
              106.820359483,
              -6.159458141
            ],
            [
              106.811133355,
              -6.160567893
            ],
            [
              106.807915374,
              -6.161250968
            ],
            [
              106.804072439,
              -6.161754289
            ],
            [
              106.802994862,
              -6.161253342
            ],
            [
              106.80126886,
              -6.159696769
            ],
            [
              106.799821809,
              -6.160785582
            ],
            [
              106.797988519,
              -6.161533054
            ],
            [
              106.799812421,
              -6.165983109
            ],
            [
              106.809489831,
              -6.179499726
            ],
            [
              106.810433969,
              -6.188845488
            ],
            [
              106.806614503,
              -6.189018143
            ],
            [
              106.805112466,
              -6.195379209
            ],
            [
              106.804146871,
              -6.197185777
            ],
            [
              106.802666291,
              -6.19882168
            ],
            [
              106.800263032,
              -6.200180261
            ],
            [
              106.798031434,
              -6.202818763
            ],
            [
              106.796687602,
              -6.204759976
            ],
            [
              106.795944585,
              -6.207554457
            ],
            [
              106.790710186,
              -6.207266477
            ],
            [
              106.788793725,
              -6.208194413
            ],
            [
              106.787771758,
              -6.206957165
            ],
            [
              106.783144902,
              -6.206530527
            ],
            [
              106.782645921,
              -6.212802069
            ],
            [
              106.778370389,
              -6.213228701
            ],
            [
              106.777605914,
              -6.216001806
            ],
            [
              106.773408212,
              -6.216044469
            ],
            [
              106.774470185,
              -6.221334658
            ],
            [
              106.745244111,
              -6.223041159
            ]
          ]
        ]
      }
    },
    {
      "type": "Feature",
      "id": "6490a979-96ad-5c1d-9c86-556a8c940379",
      "properties": {
        "id": "6490a979-96ad-5c1d-9c86-556a8c940379",
        "code": "31.74",
        "name": "Kota Administrasi Jakarta Selatan",
        "shortName": "JAKARTA SELATAN",
        "level": "CITY"
      },
      "geometry": {
        "type": "Polygon",
        "coordinates": [
          [
            [
              106.737454,
              -6.223777
            ],
            [
              106.755182,
              -6.223693
            ],
            [
              106.761285,
              -6.222178
            ],
            [
              106.765222,
              -6.222478
            ],
            [
              106.766646,
              -6.224737
            ],
            [
              106.764683,
              -6.227204
            ],
            [
              106.778279,
              -6.226878
            ],
            [
              106.777672,
              -6.213818
            ],
            [
              106.783264,
              -6.212818
            ],
            [
              106.783221,
              -6.206955
            ],
            [
              106.786592,
              -6.206914
            ],
            [
              106.792394,
              -6.207782
            ],
            [
              106.792838,
              -6.210409
            ],
            [
              106.79513,
              -6.212171
            ],
            [
              106.797176,
              -6.218442
            ],
            [
              106.795743,
              -6.229058
            ],
            [
              106.799753,
              -6.228805
            ],
            [
              106.81908,
              -6.213868
            ],
            [
              106.822668,
              -6.202987
            ],
            [
              106.836928,
              -6.205417
            ],
            [
              106.847696,
              -6.209144
            ],
            [
              106.849017,
              -6.207582
            ],
            [
              106.857498,
              -6.212264
            ],
            [
              106.856918,
              -6.21707
            ],
            [
              106.863019,
              -6.216123
            ],
            [
              106.86025,
              -6.220807
            ],
            [
              106.861026,
              -6.221649
            ],
            [
              106.863162,
              -6.219893
            ],
            [
              106.865572,
              -6.223801
            ],
            [
              106.863686,
              -6.225072
            ],
            [
              106.864638,
              -6.228986
            ],
            [
              106.863366,
              -6.231019
            ],
            [
              106.866441,
              -6.234424
            ],
            [
              106.865339,
              -6.234849
            ],
            [
              106.866851,
              -6.239178
            ],
            [
              106.864289,
              -6.236934
            ],
            [
              106.863054,
              -6.239046
            ],
            [
              106.862031,
              -6.246397
            ],
            [
              106.863831,
              -6.249061
            ],
            [
              106.862228,
              -6.250444
            ],
            [
              106.862601,
              -6.253599
            ],
            [
              106.861313,
              -6.25406
            ],
            [
              106.860244,
              -6.251033
            ],
            [
              106.857688,
              -6.253323
            ],
            [
              106.857567,
              -6.254493
            ],
            [
              106.860553,
              -6.254794
            ],
            [
              106.859474,
              -6.262516
            ],
            [
              106.854755,
              -6.261918
            ],
            [
              106.856515,
              -6.263592
            ],
            [
              106.853951,
              -6.265119
            ],
            [
              106.856375,
              -6.26981
            ],
            [
              106.854912,
              -6.270542
            ],
            [
              106.856873,
              -6.272096
            ],
            [
              106.853583,
              -6.271933
            ],
            [
              106.851404,
              -6.273635
            ],
            [
              106.851814,
              -6.275861
            ],
            [
              106.846875,
              -6.278787
            ],
            [
              106.849979,
              -6.279528
            ],
            [
              106.847398,
              -6.285364
            ],
            [
              106.848555,
              -6.288096
            ],
            [
              106.851264,
              -6.288433
            ],
            [
              106.850204,
              -6.292592
            ],
            [
              106.854577,
              -6.290781
            ],
            [
              106.852292,
              -6.294522
            ],
            [
              106.854349,
              -6.294258
            ],
            [
              106.854376,
              -6.295574
            ],
            [
              106.850449,
              -6.296081
            ],
            [
              106.852219,
              -6.298837
            ],
            [
              106.849813,
              -6.298693
            ],
            [
              106.849977,
              -6.299746
            ],
            [
              106.851205,
              -6.30082
            ],
            [
              106.854252,
              -6.299438
            ],
            [
              106.854842,
              -6.303343
            ],
            [
              106.858343,
              -6.305045
            ],
            [
              106.85682,
              -6.310092
            ],
            [
              106.857985,
              -6.311715
            ],
            [
              106.854995,
              -6.313849
            ],
            [
              106.85282,
              -6.31085
            ],
            [
              106.8518,
              -6.315671
            ],
            [
              106.849424,
              -6.317843
            ],
            [
              106.84722,
              -6.318202
            ],
            [
              106.84872,
              -6.316567
            ],
            [
              106.847707,
              -6.315276
            ],
            [
              106.838698,
              -6.320079
            ],
            [
              106.843035,
              -6.32562
            ],
            [
              106.840425,
              -6.328727
            ],
            [
              106.843451,
              -6.331748
            ],
            [
              106.839921,
              -6.333117
            ],
            [
              106.839256,
              -6.34054
            ],
            [
              106.840951,
              -6.342
            ],
            [
              106.838299,
              -6.341086
            ],
            [
              106.83495,
              -6.344518
            ],
            [
              106.839791,
              -6.344047
            ],
            [
              106.837746,
              -6.346911
            ],
            [
              106.839164,
              -6.351983
            ],
            [
              106.835612,
              -6.351937
            ],
            [
              106.836001,
              -6.354533
            ],
            [
              106.830827,
              -6.356043
            ],
            [
              106.816143,
              -6.356212
            ],
            [
              106.810574,
              -6.364198
            ],
            [
              106.794759,
              -6.364925
            ],
            [
              106.793091,
              -6.363462
            ],
            [
              106.793713,
              -6.354666
            ],
            [
              106.792493,
              -6.352417
            ],
            [
              106.794033,
              -6.350672
            ],
            [
              106.792749,
              -6.348811
            ],
            [
              106.798585,
              -6.344209
            ],
            [
              106.799967,
              -6.341243
            ],
            [
              106.79872,
              -6.338144
            ],
            [
              106.799491,
              -6.333721
            ],
            [
              106.801637,
              -6.333551
            ],
            [
              106.809184,
              -6.314931
            ],
            [
              106.79242,
              -6.315779
            ],
            [
              106.790538,
              -6.314635
            ],
            [
              106.789372,
              -6.316637
            ],
            [
              106.776814,
              -6.315257
            ],
            [
              106.776417,
              -6.31191
            ],
            [
              106.773344,
              -6.309713
            ],
            [
              106.775624,
              -6.304283
            ],
            [
              106.771247,
              -6.302856
            ],
            [
              106.772606,
              -6.300278
            ],
            [
              106.767183,
              -6.295203
            ],
            [
              106.769274,
              -6.290699
            ],
            [
              106.766881,
              -6.291085
            ],
            [
              106.766134,
              -6.288975
            ],
            [
              106.761038,
              -6.286687
            ],
            [
              106.761689,
              -6.277835
            ],
            [
              106.757524,
              -6.277735
            ],
            [
              106.757038,
              -6.274376
            ],
            [
              106.751399,
              -6.273723
            ],
            [
              106.751082,
              -6.271607
            ],
            [
              106.753543,
              -6.268571
            ],
            [
              106.752942,
              -6.264291
            ],
            [
              106.756368,
              -6.261558
            ],
            [
              106.751562,
              -6.261334
            ],
            [
              106.753895,
              -6.259755
            ],
            [
              106.754365,
              -6.254149
            ],
            [
              106.751113,
              -6.250084
            ],
            [
              106.748121,
              -6.250145
            ],
            [
              106.746798,
              -6.246033
            ],
            [
              106.748575,
              -6.240606
            ],
            [
              106.746572,
              -6.236602
            ],
            [
              106.744231,
              -6.235616
            ],
            [
              106.745513,
              -6.231128
            ],
            [
              106.74398,
              -6.230536
            ],
            [
              106.743409,
              -6.227618
            ],
            [
              106.740392,
              -6.227664
            ],
            [
              106.737454,
              -6.223777
            ]
          ]
        ]
      }
    },
    {
      "type": "Feature",
      "id": "f3d6211f-048a-5968-9d3f-a21df7eac6b6",
      "properties": {
        "id": "f3d6211f-048a-5968-9d3f-a21df7eac6b6",
        "code": "31.75",
        "name": "Kota Administrasi Jakarta Timur",
        "shortName": "JAKARTA TIMUR",
        "level": "CITY"
      },
      "geometry": {
        "type": "Polygon",
        "coordinates": [
          [
            [
              106.838341,
              -6.320796
            ],
            [
              106.840009,
              -6.318566
            ],
            [
              106.844092,
              -6.31822
            ],
            [
              106.848354,
              -6.315069
            ],
            [
              106.848548,
              -6.317235
            ],
            [
              106.847157,
              -6.317622
            ],
            [
              106.848938,
              -6.318675
            ],
            [
              106.851551,
              -6.316321
            ],
            [
              106.852292,
              -6.311396
            ],
            [
              106.855773,
              -6.313653
            ],
            [
              106.858381,
              -6.31119
            ],
            [
              106.856881,
              -6.309416
            ],
            [
              106.858447,
              -6.305828
            ],
            [
              106.854644,
              -6.303131
            ],
            [
              106.854896,
              -6.299681
            ],
            [
              106.85205,
              -6.30085
            ],
            [
              106.849701,
              -6.299346
            ],
            [
              106.852322,
              -6.298369
            ],
            [
              106.851018,
              -6.295667
            ],
            [
              106.854359,
              -6.296042
            ],
            [
              106.854065,
              -6.29372
            ],
            [
              106.852954,
              -6.2942
            ],
            [
              106.854453,
              -6.291227
            ],
            [
              106.854154,
              -6.290254
            ],
            [
              106.850118,
              -6.292415
            ],
            [
              106.850744,
              -6.287986
            ],
            [
              106.848555,
              -6.288096
            ],
            [
              106.847408,
              -6.286192
            ],
            [
              106.848097,
              -6.282252
            ],
            [
              106.850438,
              -6.279642
            ],
            [
              106.846788,
              -6.279411
            ],
            [
              106.851758,
              -6.276042
            ],
            [
              106.851316,
              -6.273805
            ],
            [
              106.853583,
              -6.271933
            ],
            [
              106.856727,
              -6.27274
            ],
            [
              106.853951,
              -6.265119
            ],
            [
              106.85695,
              -6.26433
            ],
            [
              106.854347,
              -6.26253
            ],
            [
              106.859496,
              -6.262066
            ],
            [
              106.860714,
              -6.255267
            ],
            [
              106.857641,
              -6.255122
            ],
            [
              106.857853,
              -6.252835
            ],
            [
              106.859645,
              -6.251074
            ],
            [
              106.862376,
              -6.253779
            ],
            [
              106.862194,
              -6.250597
            ],
            [
              106.864022,
              -6.249481
            ],
            [
              106.862116,
              -6.246752
            ],
            [
              106.862881,
              -6.239657
            ],
            [
              106.864517,
              -6.236863
            ],
            [
              106.866046,
              -6.23859
            ],
            [
              106.866668,
              -6.237668
            ],
            [
              106.865929,
              -6.233335
            ],
            [
              106.863366,
              -6.231019
            ],
            [
              106.864652,
              -6.2279
            ],
            [
              106.863818,
              -6.224607
            ],
            [
              106.865483,
              -6.223426
            ],
            [
              106.862979,
              -6.219617
            ],
            [
              106.860617,
              -6.221582
            ],
            [
              106.863389,
              -6.216735
            ],
            [
              106.856918,
              -6.21707
            ],
            [
              106.857498,
              -6.212264
            ],
            [
              106.849271,
              -6.206649
            ],
            [
              106.854365,
              -6.206329
            ],
            [
              106.855224,
              -6.202448
            ],
            [
              106.851038,
              -6.201599
            ],
            [
              106.861862,
              -6.193963
            ],
            [
              106.875034,
              -6.192381
            ],
            [
              106.876208,
              -6.175214
            ],
            [
              106.878718,
              -6.166643
            ],
            [
              106.88275,
              -6.167781
            ],
            [
              106.896277,
              -6.177957
            ],
            [
              106.910279,
              -6.182371
            ],
            [
              106.921957,
              -6.183075
            ],
            [
              106.920147,
              -6.170008
            ],
            [
              106.922077,
              -6.162244
            ],
            [
              106.923714,
              -6.165242
            ],
            [
              106.93008,
              -6.16814
            ],
            [
              106.932181,
              -6.164135
            ],
            [
              106.928996,
              -6.160932
            ],
            [
              106.934986,
              -6.158334
            ],
            [
              106.940213,
              -6.151338
            ],
            [
              106.940638,
              -6.157044
            ],
            [
              106.944811,
              -6.158583
            ],
            [
              106.944523,
              -6.163522
            ],
            [
              106.950896,
              -6.162808
            ],
            [
              106.954307,
              -6.157755
            ],
            [
              106.959245,
              -6.159874
            ],
            [
              106.96086,
              -6.156596
            ],
            [
              106.967634,
              -6.155289
            ],
            [
              106.970469,
              -6.156194
            ],
            [
              106.970873,
              -6.16318
            ],
            [
              106.969038,
              -6.166816
            ],
            [
              106.972728,
              -6.176979
            ],
            [
              106.973706,
              -6.1904
            ],
            [
              106.970234,
              -6.19617
            ],
            [
              106.970561,
              -6.198464
            ],
            [
              106.966715,
              -6.198687
            ],
            [
              106.966108,
              -6.206217
            ],
            [
              106.962933,
              -6.211969
            ],
            [
              106.959327,
              -6.212316
            ],
            [
              106.957633,
              -6.218016
            ],
            [
              106.951663,
              -6.21896
            ],
            [
              106.948781,
              -6.222535
            ],
            [
              106.945545,
              -6.236834
            ],
            [
              106.942829,
              -6.237734
            ],
            [
              106.945343,
              -6.244848
            ],
            [
              106.944034,
              -6.252357
            ],
            [
              106.940784,
              -6.25375
            ],
            [
              106.922384,
              -6.254876
            ],
            [
              106.920618,
              -6.25137
            ],
            [
              106.916803,
              -6.256289
            ],
            [
              106.909727,
              -6.255366
            ],
            [
              106.910086,
              -6.257684
            ],
            [
              106.904346,
              -6.262015
            ],
            [
              106.905411,
              -6.268311
            ],
            [
              106.904252,
              -6.269994
            ],
            [
              106.909729,
              -6.273304
            ],
            [
              106.907992,
              -6.282548
            ],
            [
              106.910423,
              -6.29184
            ],
            [
              106.911378,
              -6.291355
            ],
            [
              106.91028,
              -6.294258
            ],
            [
              106.912718,
              -6.298523
            ],
            [
              106.914873,
              -6.297059
            ],
            [
              106.920409,
              -6.299935
            ],
            [
              106.921782,
              -6.304833
            ],
            [
              106.920233,
              -6.31108
            ],
            [
              106.92268,
              -6.314567
            ],
            [
              106.920865,
              -6.318081
            ],
            [
              106.921531,
              -6.323691
            ],
            [
              106.918592,
              -6.326906
            ],
            [
              106.920962,
              -6.331437
            ],
            [
              106.918571,
              -6.339083
            ],
            [
              106.919536,
              -6.341078
            ],
            [
              106.916004,
              -6.346444
            ],
            [
              106.917648,
              -6.350097
            ],
            [
              106.91594,
              -6.354374
            ],
            [
              106.917062,
              -6.35617
            ],
            [
              106.913559,
              -6.358847
            ],
            [
              106.916083,
              -6.362593
            ],
            [
              106.914486,
              -6.365168
            ],
            [
              106.907608,
              -6.361195
            ],
            [
              106.904435,
              -6.367836
            ],
            [
              106.903431,
              -6.374458
            ],
            [
              106.900771,
              -6.373242
            ],
            [
              106.900153,
              -6.369927
            ],
            [
              106.898078,
              -6.369705
            ],
            [
              106.896596,
              -6.371494
            ],
            [
              106.889174,
              -6.367545
            ],
            [
              106.887419,
              -6.372574
            ],
            [
              106.882717,
              -6.372382
            ],
            [
              106.885106,
              -6.366012
            ],
            [
              106.882686,
              -6.363681
            ],
            [
              106.878538,
              -6.363989
            ],
            [
              106.878935,
              -6.361239
            ],
            [
              106.871715,
              -6.360216
            ],
            [
              106.873662,
              -6.356644
            ],
            [
              106.870725,
              -6.352637
            ],
            [
              106.863083,
              -6.357849
            ],
            [
              106.862607,
              -6.354802
            ],
            [
              106.860921,
              -6.3559
            ],
            [
              106.860233,
              -6.353782
            ],
            [
              106.856454,
              -6.353943
            ],
            [
              106.857814,
              -6.348768
            ],
            [
              106.855206,
              -6.346098
            ],
            [
              106.855109,
              -6.342311
            ],
            [
              106.851722,
              -6.342034
            ],
            [
              106.849005,
              -6.337235
            ],
            [
              106.844767,
              -6.337343
            ],
            [
              106.839725,
              -6.335138
            ],
            [
              106.840001,
              -6.332735
            ],
            [
              106.843522,
              -6.331619
            ],
            [
              106.840421,
              -6.329586
            ],
            [
              106.843199,
              -6.325978
            ],
            [
              106.840071,
              -6.322635
            ],
            [
              106.840919,
              -6.321744
            ],
            [
              106.838341,
              -6.320796
            ]
          ]
        ]
      }
    }
  ]
}